[
    {
        "OBJECT_NAME": "ARIANE 40+ R/B",
        "OBJECT_ID": "1995-021B",
        "EPOCH": "2026-04-25T19:18:53.002368",
        "MEAN_MOTION": 14.39803273,
        "ECCENTRICITY": 0.0006722,
        "INCLINATION": 98.443,
        "RA_OF_ASC_NODE": 186.6314,
        "ARG_OF_PERICENTER": 12.0024,
        "MEAN_ANOMALY": 98.2418,
        "EPHEMERIS_TYPE": 0,
        "CLASSIFICATION_TYPE": "U",
        "NORAD_CAT_ID": 23561,
        "ELEMENT_SET_NO": 999,
        "REV_AT_EPOCH": 62602,
        "BSTAR": 8.0601e-05,
        "MEAN_MOTION_DOT": 2.09e-06,
        "MEAN_MOTION_DDOT": 0
    },
    {
        "OBJECT_NAME": "SL-16 R/B",
        "OBJECT_ID": "1995-058B",
        "EPOCH": "2026-04-25T20:07:49.091232",
        "MEAN_MOTION": 14.15505015,
        "ECCENTRICITY": 0.0010945,
        "INCLINATION": 71.0205,
        "RA_OF_ASC_NODE": 81.2643,
        "ARG_OF_PERICENTER": 38.7992,
        "MEAN_ANOMALY": 321.3915,
        "EPHEMERIS_TYPE": 0,
        "CLASSIFICATION_TYPE": "U",
        "NORAD_CAT_ID": 23705,
        "ELEMENT_SET_NO": 999,
        "REV_AT_EPOCH": 57452,
        "BSTAR": -5.3163e-05,
        "MEAN_MOTION_DOT": -1.52e-06,
        "MEAN_MOTION_DDOT": 0
    },
    {
        "OBJECT_NAME": "SL-16 R/B",
        "OBJECT_ID": "1996-051B",
        "EPOCH": "2026-04-25T20:05:13.013088",
        "MEAN_MOTION": 14.12427836,
        "ECCENTRICITY": 0.0012491,
        "INCLINATION": 70.7602,
        "RA_OF_ASC_NODE": 75.4445,
        "ARG_OF_PERICENTER": 66.3142,
        "MEAN_ANOMALY": 293.9287,
        "EPHEMERIS_TYPE": 0,
        "CLASSIFICATION_TYPE": "U",
        "NORAD_CAT_ID": 24298,
        "ELEMENT_SET_NO": 999,
        "REV_AT_EPOCH": 52830,
        "BSTAR": 7.9271e-05,
        "MEAN_MOTION_DOT": 9.7e-07,
        "MEAN_MOTION_DDOT": 0
    },
    {
        "OBJECT_NAME": "ORBVIEW 2 (SEASTAR)",
        "OBJECT_ID": "1997-037A",
        "EPOCH": "2026-04-25T17:52:51.423168",
        "MEAN_MOTION": 14.35525064,
        "ECCENTRICITY": 0.0001095,
        "INCLINATION": 98.8643,
        "RA_OF_ASC_NODE": 281.3229,
        "ARG_OF_PERICENTER": 288.8496,
        "MEAN_ANOMALY": 71.257,
        "EPHEMERIS_TYPE": 0,
        "CLASSIFICATION_TYPE": "U",
        "NORAD_CAT_ID": 24883,
        "ELEMENT_SET_NO": 999,
        "REV_AT_EPOCH": 51522,
        "BSTAR": 9.4312e-05,
        "MEAN_MOTION_DOT": 2.25e-06,
        "MEAN_MOTION_DDOT": 0
    },
    {
        "OBJECT_NAME": "SL-16 R/B",
        "OBJECT_ID": "1998-043G",
        "EPOCH": "2026-04-25T19:27:53.514720",
        "MEAN_MOTION": 14.26059912,
        "ECCENTRICITY": 0.0008916,
        "INCLINATION": 98.8326,
        "RA_OF_ASC_NODE": 69.5317,
        "ARG_OF_PERICENTER": 234.6253,
        "MEAN_ANOMALY": 125.4094,
        "EPHEMERIS_TYPE": 0,
        "CLASSIFICATION_TYPE": "U",
        "NORAD_CAT_ID": 25400,
        "ELEMENT_SET_NO": 999,
        "REV_AT_EPOCH": 44570,
        "BSTAR": 4.5512e-05,
        "MEAN_MOTION_DOT": 6.3e-07,
        "MEAN_MOTION_DDOT": 0
    },
    {
        "OBJECT_NAME": "SL-16 R/B",
        "OBJECT_ID": "1998-045B",
        "EPOCH": "2026-04-25T14:45:04.578912",
        "MEAN_MOTION": 14.16196822,
        "ECCENTRICITY": 0.0009279,
        "INCLINATION": 71.0097,
        "RA_OF_ASC_NODE": 82.8897,
        "ARG_OF_PERICENTER": 303.5892,
        "MEAN_ANOMALY": 56.4345,
        "EPHEMERIS_TYPE": 0,
        "CLASSIFICATION_TYPE": "U",
        "NORAD_CAT_ID": 25407,
        "ELEMENT_SET_NO": 999,
        "REV_AT_EPOCH": 43374,
        "BSTAR": -8.7623e-05,
        "MEAN_MOTION_DOT": -2.21e-06,
        "MEAN_MOTION_DDOT": 0
    },
    {
        "OBJECT_NAME": "ISS (ZARYA)",
        "OBJECT_ID": "1998-067A",
        "EPOCH": "2026-04-25T14:51:50.575968",
        "MEAN_MOTION": 15.48952974,
        "ECCENTRICITY": 0.0006949,
        "INCLINATION": 51.632,
        "RA_OF_ASC_NODE": 200.2872,
        "ARG_OF_PERICENTER": 349.7097,
        "MEAN_ANOMALY": 10.3748,
        "EPHEMERIS_TYPE": 0,
        "CLASSIFICATION_TYPE": "U",
        "NORAD_CAT_ID": 25544,
        "ELEMENT_SET_NO": 999,
        "REV_AT_EPOCH": 56360,
        "BSTAR": 0.00019457,
        "MEAN_MOTION_DOT": 0.00010271,
        "MEAN_MOTION_DDOT": 0
    },
    {
        "OBJECT_NAME": "CZ-4B R/B",
        "OBJECT_ID": "1999-025C",
        "EPOCH": "2026-04-25T17:32:16.640160",
        "MEAN_MOTION": 14.18274,
        "ECCENTRICITY": 0.0036622,
        "INCLINATION": 98.6534,
        "RA_OF_ASC_NODE": 158.8769,
        "ARG_OF_PERICENTER": 208.0093,
        "MEAN_ANOMALY": 262.4339,
        "EPHEMERIS_TYPE": 0,
        "CLASSIFICATION_TYPE": "U",
        "NORAD_CAT_ID": 25732,
        "ELEMENT_SET_NO": 999,
        "REV_AT_EPOCH": 39483,
        "BSTAR": 3.621e-05,
        "MEAN_MOTION_DOT": 3.2e-07,
        "MEAN_MOTION_DDOT": 0
    },
    {
        "OBJECT_NAME": "OKEAN-O",
        "OBJECT_ID": "1999-039A",
        "EPOCH": "2026-04-25T18:19:16.997088",
        "MEAN_MOTION": 14.80402267,
        "ECCENTRICITY": 0.0001518,
        "INCLINATION": 97.9357,
        "RA_OF_ASC_NODE": 175.1541,
        "ARG_OF_PERICENTER": 114.745,
        "MEAN_ANOMALY": 245.392,
        "EPHEMERIS_TYPE": 0,
        "CLASSIFICATION_TYPE": "U",
        "NORAD_CAT_ID": 25860,
        "ELEMENT_SET_NO": 999,
        "REV_AT_EPOCH": 44135,
        "BSTAR": 7.3638e-05,
        "MEAN_MOTION_DOT": 5.1e-06,
        "MEAN_MOTION_DDOT": 0
    },
    {
        "OBJECT_NAME": "SL-16 R/B",
        "OBJECT_ID": "1999-039B",
        "EPOCH": "2026-04-25T18:23:58.305120",
        "MEAN_MOTION": 14.81789935,
        "ECCENTRICITY": 0.0016159,
        "INCLINATION": 97.9878,
        "RA_OF_ASC_NODE": 174.7699,
        "ARG_OF_PERICENTER": 103.8328,
        "MEAN_ANOMALY": 256.4683,
        "EPHEMERIS_TYPE": 0,
        "CLASSIFICATION_TYPE": "U",
        "NORAD_CAT_ID": 25861,
        "ELEMENT_SET_NO": 999,
        "REV_AT_EPOCH": 44383,
        "BSTAR": 6.1456e-05,
        "MEAN_MOTION_DOT": 4.32e-06,
        "MEAN_MOTION_DDOT": 0
    },
    {
        "OBJECT_NAME": "DELTA 2 R/B",
        "OBJECT_ID": "1999-041E",
        "EPOCH": "2026-04-25T17:28:17.104800",
        "MEAN_MOTION": 14.11928757,
        "ECCENTRICITY": 0.0502469,
        "INCLINATION": 51.7596,
        "RA_OF_ASC_NODE": 113.3627,
        "ARG_OF_PERICENTER": 127.1377,
        "MEAN_ANOMALY": 237.6559,
        "EPHEMERIS_TYPE": 0,
        "CLASSIFICATION_TYPE": "U",
        "NORAD_CAT_ID": 25876,
        "ELEMENT_SET_NO": 999,
        "REV_AT_EPOCH": 36967,
        "BSTAR": 0.00013303,
        "MEAN_MOTION_DOT": 5.81e-06,
        "MEAN_MOTION_DDOT": 0
    },
    {
        "OBJECT_NAME": "HELIOS 1B",
        "OBJECT_ID": "1999-064A",
        "EPOCH": "2026-04-25T17:23:56.762592",
        "MEAN_MOTION": 14.87860115,
        "ECCENTRICITY": 3.73e-05,
        "INCLINATION": 98.1651,
        "RA_OF_ASC_NODE": 19.3423,
        "ARG_OF_PERICENTER": 80.4193,
        "MEAN_ANOMALY": 279.7064,
        "EPHEMERIS_TYPE": 0,
        "CLASSIFICATION_TYPE": "U",
        "NORAD_CAT_ID": 25977,
        "ELEMENT_SET_NO": 999,
        "REV_AT_EPOCH": 69225,
        "BSTAR": 0.00014109,
        "MEAN_MOTION_DOT": 1.232e-05,
        "MEAN_MOTION_DDOT": 0
    },
    {
        "OBJECT_NAME": "TERRA",
        "OBJECT_ID": "1999-068A",
        "EPOCH": "2026-04-25T20:07:10.308000",
        "MEAN_MOTION": 14.61060159,
        "ECCENTRICITY": 0.0003216,
        "INCLINATION": 97.9503,
        "RA_OF_ASC_NODE": 167.449,
        "ARG_OF_PERICENTER": 56.8981,
        "MEAN_ANOMALY": 31.3058,
        "EPHEMERIS_TYPE": 0,
        "CLASSIFICATION_TYPE": "U",
        "NORAD_CAT_ID": 25994,
        "ELEMENT_SET_NO": 999,
        "REV_AT_EPOCH": 40196,
        "BSTAR": 8.609e-05,
        "MEAN_MOTION_DOT": 3.78e-06,
        "MEAN_MOTION_DDOT": 0
    }
]