ARIANE 40+ R/B          
1 23561U 95021B   26115.80478012  .00000209  00000+0  80601-4 0  9998
2 23561  98.4430 186.6314 0006722  12.0024  98.2418 14.39803273626020
SL-16 R/B               
1 23705U 95058B   26115.83876263 -.00000152  00000+0 -53163-4 0  9993
2 23705  71.0205  81.2643 0010945  38.7992 321.3915 14.15505015574529
SL-16 R/B               
1 24298U 96051B   26115.83695617  .00000097  00000+0  79271-4 0  9991
2 24298  70.7602  75.4445 0012491  66.3142 293.9287 14.12427836528303
ORBVIEW 2 (SEASTAR)     
1 24883U 97037A   26115.74503962  .00000225  00000+0  94312-4 0  9993
2 24883  98.8643 281.3229 0001095 288.8496  71.2570 14.35525064515224
SL-16 R/B               
1 25400U 98043G   26115.81103605  .00000063  00000+0  45512-4 0  9993
2 25400  98.8326  69.5317 0008916 234.6253 125.4094 14.26059912445703
SL-16 R/B               
1 25407U 98045B   26115.61463633 -.00000221  00000+0 -87623-4 0  9997
2 25407  71.0097  82.8897 0009279 303.5892  56.4345 14.16196822433741
ISS (ZARYA)             
1 25544U 98067A   26115.61933537  .00010271  00000+0  19457-3 0  9991
2 25544  51.6320 200.2872 0006949 349.7097  10.3748 15.48952974563604
CZ-4B R/B               
1 25732U 99025C   26115.73074815  .00000032  00000+0  36210-4 0  9994
2 25732  98.6534 158.8769 0036622 208.0093 262.4339 14.18274000394834
OKEAN-O                 
1 25860U 99039A   26115.76339117  .00000510  00000+0  73638-4 0  9999
2 25860  97.9357 175.1541 0001518 114.7450 245.3920 14.80402267441350
SL-16 R/B               
1 25861U 99039B   26115.76664705  .00000432  00000+0  61456-4 0  9992
2 25861  97.9878 174.7699 0016159 103.8328 256.4683 14.81789935443833
DELTA 2 R/B             
1 25876U 99041E   26115.72797575  .00000581  00000+0  13303-3 0  9991
2 25876  51.7596 113.3627 0502469 127.1377 237.6559 14.11928757369673
HELIOS 1B               
1 25977U 99064A   26115.72496253  .00001232  00000+0  14109-3 0  9996
2 25977  98.1651  19.3423 0000373  80.4193 279.7064 14.87860115692252
TERRA                   
1 25994U 99068A   26115.83831375  .00000378  00000+0  86090-4 0  9998
2 25994  97.9503 167.4490 0003216  56.8981  31.3058 14.61060159401967
